[{"OBJECT_NAME":"GNOMES-5","OBJECT_ID":"2024-149DL","EPOCH":"2026-03-09T22:53:01.372704","MEAN_MOTION":15.00280005,"ECCENTRICITY":0.00076217,"INCLINATION":97.6857,"RA_OF_ASC_NODE":148.0235,"ARG_OF_PERICENTER":89.6268,"MEAN_ANOMALY":270.5829,"EPHEMERIS_TYPE":0,"CLASSIFICATION_TYPE":"U","NORAD_CAT_ID":60574,"ELEMENT_SET_NO":999,"REV_AT_EPOCH":8527,"BSTAR":0.00047414566,"MEAN_MOTION_DOT":5.885e-5,"MEAN_MOTION_DDOT":0},{"OBJECT_NAME":"STARLINK-35838","OBJECT_ID":"2025-280R","EPOCH":"2026-03-09T22:15:11.610144","MEAN_MOTION":14.98331397,"ECCENTRICITY":0.00026675,"INCLINATION":70.0018,"RA_OF_ASC_NODE":333.7677,"ARG_OF_PERICENTER":270.2189,"MEAN_ANOMALY":89.8665,"EPHEMERIS_TYPE":0,"CLASSIFICATION_TYPE":"U","NORAD_CAT_ID":66836,"ELEMENT_SET_NO":999,"REV_AT_EPOCH":1611,"BSTAR":0.00041565979,"MEAN_MOTION_DOT":4.87e-5,"MEAN_MOTION_DDOT":0}]
